GLOBALSTAR M067 [+]     
1 32263U 07048A   23288.76048184 -.00000047  00000+0  37267-3 0  9995
2 32263  51.9757  22.0248 0001458 115.0039  56.5412 12.40632954733717
GLOBALSTAR M070 [+]     
1 32264U 07048B   23288.88369615 -.00000049  00000+0  30528-3 0  9999
2 32264  51.9741 187.6717 0000601  99.5025 338.4391 12.62280061736599
GLOBALSTAR M066 [+]     
1 32265U 07048C   23288.66885850 -.00000083  00000+0  11576-3 0  9990
2 32265  51.9690  50.3886 0000939  77.5327 296.2419 12.62266143738837
GLOBALSTAR M068 [-]     
1 32266U 07048D   23288.92318966 -.00000057  00000+0  25890-3 0  9994
2 32266  51.9911   2.4549 0000678 196.1540 335.1098 12.62768112740453
GLOBALSTAR M079 [+]     
1 37188U 10054A   23288.90928774 -.00000066  00000+0  20823-3 0  9996
2 37188  52.0031 197.5710 0000922  63.7489  12.9330 12.62268883599388
GLOBALSTAR M074 [+]     
1 37189U 10054B   23288.93922587 -.00000059  00000+0  25123-3 0  9996
2 37189  52.0007 196.8965 0000755  73.5725  19.5702 12.62270791599996
GLOBALSTAR M076 [+]     
1 37190U 10054C   23288.71127844 -.00000068  00000+0  20118-3 0  9996
2 37190  52.0020 197.7062 0001285  82.7086 293.9496 12.62262138599682
GLOBALSTAR M077 [+]     
1 37191U 10054D   23288.93530030 -.00000064  00000+0  21988-3 0  9998
2 37191  52.0056 153.7067 0000850  86.2230 287.7483 12.62267599600086
